# satellitez-backend

{
OBJECT_NAME: 'COSMOS 1812',
OBJECT_ID: '1987-003A',
EPOCH: '2023-11-26T11:37:31.137888',
MEAN_MOTION: 15.25896316,
ECCENTRICITY: 0.0002161,
INCLINATION: 82.5087,
RA_OF_ASC_NODE: 341.5368,
ARG_OF_PERICENTER: 190.2656,
MEAN_ANOMALY: 169.8538,
EPHEMERIS_TYPE: 0,
CLASSIFICATION_TYPE: 'U',
NORAD_CAT_ID: 17295,
ELEMENT_SET_NO: 999,
REV_AT_EPOCH: 1540,
BSTAR: 0.00046881,
MEAN_MOTION_DOT: 0.0001205,
MEAN_MOTION_DDOT: 0
},

COSMOS 1812
1 17295U 87003A 23330.48438817 .00012050 00000+0 46881-3 0 9993
2 17295 82.5087 341.5368 0002161 190.2656 169.8538 15.25896316 15401
SL-14 R/B
